NORAD_CAT_ID,OBJECT_NAME,OBJECT_TYPE,EPOCH,MEAN_MOTION,ECCENTRICITY,INCLINATION,RA_OF_ASC_NODE,ARG_OF_PERICENTER,MEAN_ANOMALY,BSTAR,MEAN_MOTION_DOT,MEAN_MOTION_DDOT,TLE_LINE0,TLE_LINE1,TLE_LINE2,SEMIMAJOR_AXIS,PERIOD,APOGEE,PERIGEE,DECAYED
53700.0,STARLINK-4725,PAYLOAD,2023-03-07 04:39:52,15.0882703,0.0002076,53.2174,135.0885,78.5369,281.5857,1.9854e-05,2.8e-07,0.0,0 STARLINK-4725,1 53700U 22107A   23066.19435615  .00000028  00000-0  19854-4 0  9999,2 53700  53.2174 135.0885 0002076  78.5369 281.5857 15.08827030 28271,6917.92,95.438,541.221,538.349,0.0
53700.0,STARLINK-4725,PAYLOAD,2023-03-07 14:12:10,15.0884381,0.0001335,53.2184,133.3021,98.0518,262.0626,3.5315e-05,2.74e-06,0.0,0 STARLINK-4725,1 53700U 22107A   23066.59178479  .00000274  00000-0  35315-4 0  9998,2 53700  53.2184 133.3021 0001335  98.0518 262.0626 15.08843810 28334,6917.869,95.437,540.657,538.81,0.0
53700.0,STARLINK-4725,PAYLOAD,2023-03-08 14:02:57,15.08855486,0.0001247,53.2171,128.8388,120.8483,239.2632,-0.00012576,-2.29e-05,0.0,0 STARLINK-4725,1 53700U 22107A   23067.58538488 -.00002290  00000-0 -12576-3 0  9993,2 53700  53.2171 128.8388 0001247 120.8483 239.2632 15.08855486 29237,6917.833,95.437,540.561,538.835,0.0
53700.0,STARLINK-4725,PAYLOAD,2023-03-09 10:42:57,15.08852164,0.0001203,53.2185,124.9724,97.4008,262.7121,0.00015133,2.122e-05,0.0,0 STARLINK-4725,1 53700U 22107A   23068.44650035  .00002122  00000-0  15133-3 0  9996,2 53700  53.2185 124.9724 0001203  97.4008 262.7121 15.08852164 28612,6917.843,95.437,540.54,538.876,0.0
53700.0,STARLINK-4725,PAYLOAD,2023-03-09 20:15:17,15.08841964,0.0001283,53.2183,123.1896,79.1543,280.9594,1.0133e-05,-1.27e-06,0.0,0 STARLINK-4725,1 53700U 22107A   23068.84395102 -.00000127  00000-0  10133-4 0  9991,2 53700  53.2183 123.1896 0001283  79.1543 280.9594 15.08841964 29422,6917.874,95.437,540.627,538.852,0.0
53700.0,STARLINK-4725,PAYLOAD,2023-03-10 10:33:46,15.08828319,0.000102,53.2181,120.5184,98.2893,261.8214,-6.5893e-06,-3.93e-06,0.0,0 STARLINK-4725,1 53700U 22107A   23069.44012659 -.00000393  00000-0 -65893-5 0  9991,2 53700  53.2181 120.5184 0001020  98.2893 261.8214 15.08828319 28762,6917.916,95.438,540.487,539.075,0.0
53700.0,STARLINK-4725,PAYLOAD,2023-03-10 20:06:04,15.08840719,8.3e-05,53.2179,118.7301,64.0467,296.061,-4.1859e-05,-9.54e-06,0.0,0 STARLINK-4725,1 53700U 22107A   23069.83755787 -.00000954  00000-0 -41859-4 0  9998,2 53700  53.2179 118.7301 0000830  64.0467 296.0610 15.08840719 29573,6917.878,95.438,540.317,539.169,0.0
53700.0,STARLINK-4725,PAYLOAD,2023-03-11 07:13:47,15.0883994,0.000105,53.2179,116.6503,81.1639,278.9473,-0.00016606,-2.93e-05,0.0,0 STARLINK-4725,1 53700U 22107A   23070.30124811 -.00002930  00000-0 -16606-3 0  9997,2 53700  53.2179 116.6503 0001050  81.1639 278.9473 15.08839940 28894,6917.881,95.438,540.472,539.019,0.0
53700.0,STARLINK-4725,PAYLOAD,2023-03-11 11:59:56,15.0885327,6.78e-05,53.2172,115.7551,85.7724,274.3346,-5.1075e-05,-1.101e-05,0.0,0 STARLINK-4725,1 53700U 22107A   23070.49995394 -.00001101  00000-0 -51075-4 0  9998,2 53700  53.2172 115.7551 0000678  85.7724 274.3346 15.08853270 29678,6917.84,95.437,540.174,539.236,0.0
53700.0,STARLINK-4725,PAYLOAD,2023-03-12 10:15:20,15.08839799,0.0001199,53.2184,111.5939,49.6748,310.4348,2.1349e-05,5.2e-07,0.0,0 STARLINK-4725,1 53700U 22107A   23071.42732409  .00000052  00000-0  21349-4 0  9991,2 53700  53.2184 111.5939 0001199  49.6748 310.4348 15.08839799 29066,6917.881,95.438,540.575,538.917,0.0
53700.0,STARLINK-4725,PAYLOAD,2023-03-14 01:59:58,15.08841193,0.0001092,53.2177,104.1596,63.9249,296.1856,3.3317e-05,2.43e-06,0.0,0 STARLINK-4725,1 53700U 22107A   23073.08331994  .00000243  00000-0  33317-4 0  9999,2 53700  53.2177 104.1596 0001092  63.9249 296.1856 15.08841193 29315,6917.877,95.437,540.497,538.986,0.0
53700.0,STARLINK-4725,PAYLOAD,2023-03-14 08:21:31,15.08843393,0.0001114,53.2176,102.9707,65.674,294.4368,-2.9269e-05,-7.54e-06,0.0,0 STARLINK-4725,1 53700U 22107A   23073.34828171 -.00000754  00000-0 -29269-4 0  9996,2 53700  53.2176 102.9707 0001114  65.6740 294.4368 15.08843393 30106,6917.87,95.437,540.506,538.964,0.0
53700.0,STARLINK-4725,PAYLOAD,2023-03-14 19:29:13,15.08845879,0.0001261,53.2185,100.8867,132.43,227.6799,-6.0852e-05,-1.256e-05,0.0,0 STARLINK-4725,1 53700U 22107A   23073.81195654 -.00001256  00000-0 -60852-4 0  9992,2 53700  53.2185 100.8867 0001261 132.4300 227.6799 15.08845879 30172,6917.862,95.437,540.6,538.855,0.0
53700.0,STARLINK-4725,PAYLOAD,2023-03-15 05:01:31,15.08844521,0.0001046,53.2177,99.1027,106.6562,253.4545,3.4655e-05,2.64e-06,0.0,0 STARLINK-4725,1 53700U 22107A   23074.20939316  .00000264  00000-0  34655-4 0  9995,2 53700  53.2177  99.1027 0001046 106.6562 253.4545 15.08844521 29486,6917.867,95.437,540.455,539.008,0.0
53700.0,STARLINK-4725,PAYLOAD,2023-03-15 11:23:03,15.08852081,0.0001304,53.2175,97.9117,113.5846,246.5283,0.00010329,1.357e-05,0.0,0 STARLINK-4725,1 53700U 22107A   23074.47434372  .00001357  00000-0  10329-3 0  9991,2 53700  53.2175  97.9117 0001304 113.5846 246.5283 15.08852081 29526,6917.843,95.437,540.611,538.806,0.0
53700.0,STARLINK-4725,PAYLOAD,2023-03-15 12:58:25,15.08857249,0.0001338,53.2184,97.6155,113.3322,246.7811,0.00015309,2.15e-05,0.0,0 STARLINK-4725,1 53700U 22107A   23074.54057779  .00002150  00000-0  15309-3 0  9996,2 53700  53.2184  97.6155 0001338 113.3322 246.7811 15.08857249 30284,6917.828,95.436,540.618,538.767,0.0
53700.0,STARLINK-4725,PAYLOAD,2023-03-16 04:52:19,15.08826605,0.0001159,53.2177,94.6419,126.3344,233.7755,-0.00010563,-1.968e-05,0.0,0 STARLINK-4725,1 53700U 22107A   23075.20300652 -.00001968  00000-0 -10563-3 0  9996,2 53700  53.2177  94.6419 0001159 126.3344 233.7755 15.08826605 29637,6917.921,95.438,540.588,538.985,0.0
53700.0,STARLINK-4725,PAYLOAD,2023-03-16 11:13:55,15.08787819,0.0001089,53.2185,93.4532,112.145,247.9658,-0.00040016,-6.641e-05,0.0,0 STARLINK-4725,1 53700U 22107A   23075.46800547 -.00006641  00000-0 -40016-3 0  9991,2 53700  53.2185  93.4532 0001089 112.1450 247.9658 15.08787819 29678,6918.04,95.441,540.658,539.152,0.0
53700.0,STARLINK-4725,PAYLOAD,2023-03-16 12:49:18,15.08788511,9.75e-05,53.2182,93.156,106.9346,253.1753,-0.00038566,-6.411e-05,0.0,0 STARLINK-4725,1 53700U 22107A   23075.53424640 -.00006411  00000-0 -38566-3 0  9997,2 53700  53.2182  93.1560 0000975 106.9346 253.1753 15.08788511 30432,6918.038,95.441,540.577,539.228,0.0
53700.0,STARLINK-4725,PAYLOAD,2023-03-16 17:35:26,15.08821252,5.08e-05,53.2175,92.2648,102.8214,257.2835,-0.00014062,-2.524e-05,0.0,0 STARLINK-4725,1 53700U 22107A   23075.73294119 -.00002524  00000-0 -14062-3 0  9991,2 53700  53.2175  92.2648 0000508 102.8214 257.2835 15.08821252 29717,6917.938,95.439,540.154,539.451,0.0
53700.0,STARLINK-4725,PAYLOAD,2023-03-17 12:40:03,15.08842683,9.04e-05,53.2177,88.6959,86.616,273.4935,-9.603e-05,-1.816e-05,0.0,0 STARLINK-4725,1 53700U 22107A   23076.52781367 -.00001816  00000-0 -96030-4 0  9994,2 53700  53.2177  88.6959 0000904  86.6160 273.4935 15.08842683 29837,6917.872,95.437,540.363,539.112,0.0
53700.0,STARLINK-4725,PAYLOAD,2023-03-17 17:26:12,15.08848381,9.5e-05,53.2176,87.804,86.4206,273.6895,-4.6018e-05,-1.02e-05,0.0,0 STARLINK-4725,1 53700U 22107A   23076.72652840 -.00001020  00000-0 -46018-4 0  9997,2 53700  53.2176  87.8040 0000950  86.4206 273.6895 15.08848381 30614,6917.855,95.437,540.377,539.063,0.0
53700.0,STARLINK-4725,PAYLOAD,2023-03-18 09:20:02,15.08828933,8.43e-05,53.2172,84.8301,69.5152,290.5931,0.00051639,7.938e-05,0.0,0 STARLINK-4725,1 53700U 22107A   23077.38892161  .00007938  00000-0  51639-3 0  9998,2 53700  53.2172  84.8301 0000843  69.5152 290.5931 15.08828933 29966,6917.914,95.438,540.362,539.196,0.0
53700.0,STARLINK-4725,PAYLOAD,2023-03-18 17:16:59,15.08819731,0.0001191,53.2183,83.3436,74.4599,285.6524,0.00036417,5.509e-05,0.0,0 STARLINK-4725,1 53700U 22107A   23077.72013629  .00005509  00000-0  36417-3 0  9999,2 53700  53.2183  83.3436 0001191  74.4599 285.6524 15.08819731 30015,6917.942,95.439,540.631,538.983,0.0
53700.0,STARLINK-4725,PAYLOAD,2023-03-19 06:00:04,15.08843847,0.0001248,53.218,80.9644,69.8529,290.2597,2.191e-05,6.1e-07,0.0,0 STARLINK-4725,1 53700U 22107A   23078.25005490  .00000061  00000-0  21910-4 0  9996,2 53700  53.2180  80.9644 0001248  69.8529 290.2597 15.08843847 30095,6917.869,95.437,540.597,538.87,0.0
53700.0,STARLINK-4725,PAYLOAD,2023-03-19 12:21:36,15.0885237,0.0001287,53.2189,79.7751,72.586,287.5273,8.0746e-05,9.98e-06,0.0,0 STARLINK-4725,1 53700U 22107A   23078.51500573  .00000998  00000-0  80746-4 0  9998,2 53700  53.2189  79.7751 0001287  72.5860 287.5273 15.08852370 30137,6917.843,95.437,540.598,538.817,0.0
53700.0,STARLINK-4725,PAYLOAD,2023-03-19 17:07:47,15.08832794,0.0001161,53.2174,78.8831,79.7846,280.3277,-0.00010299,-1.926e-05,0.0,0 STARLINK-4725,1 53700U 22107A   23078.71374265 -.00001926  00000-0 -10299-3 0  9996,2 53700  53.2174  78.8831 0001161  79.7846 280.3277 15.08832794 30160,6917.902,95.438,540.571,538.964,0.0
53700.0,STARLINK-4725,PAYLOAD,2023-03-20 05:50:51,15.08852299,0.0001042,53.218,76.5043,89.9459,270.1653,-0.0001236,-2.255e-05,0.0,0 STARLINK-4725,1 53700U 22107A   23079.24364890 -.00002255  00000-0 -12360-3 0  9995,2 53700  53.2180  76.5043 0001042  89.9459 270.1653 15.08852299 30244,6917.843,95.437,540.429,538.987,0.0
53700.0,STARLINK-4725,PAYLOAD,2023-03-20 12:12:23,15.08856745,0.000108,53.2181,75.3145,89.0948,271.0168,-8.0087e-05,-1.563e-05,0.0,0 STARLINK-4725,1 53700U 22107A   23079.50860181 -.00001563  00000-0 -80087-4 0  9991,2 53700  53.2181  75.3145 0001080  89.0948 271.0168 15.08856745 31030,6917.829,95.436,540.441,538.947,0.0
53700.0,STARLINK-4725,PAYLOAD,2023-03-20 16:58:33,15.08837853,8.11e-05,53.2189,74.4229,84.3126,275.7958,-0.00023686,-4.055e-05,0.0,0 STARLINK-4725,1 53700U 22107A   23079.70733692 -.00004055  00000-0 -23686-3 0  9999,2 53700  53.2189  74.4229 0000811  84.3126 275.7958 15.08837853 30315,6917.887,95.438,540.313,539.191,0.0
